NORAD_CAT_ID,OBJECT_NAME,OBJECT_TYPE,EPOCH,MEAN_MOTION,ECCENTRICITY,INCLINATION,RA_OF_ASC_NODE,ARG_OF_PERICENTER,MEAN_ANOMALY,BSTAR,MEAN_MOTION_DOT,MEAN_MOTION_DDOT,TLE_LINE0,TLE_LINE1,TLE_LINE2,SEMIMAJOR_AXIS,PERIOD,APOGEE,PERIGEE,DECAYED
53568.0,STARLINK-4583,PAYLOAD,2024-01-03 11:04:45,15.08845402,0.0001551,53.2184,28.3991,85.735,274.3819,-3.8381e-06,-3.49e-06,0.0,0 STARLINK-4583,1 53568U 22101AT  24003.46163264 -.00000349  00000-0 -38381-5 0  9990,2 53568  53.2184  28.3991 0001551  85.7350 274.3819 15.08845402 76244,6917.864,95.437,540.802,538.656,0.0
53568.0,STARLINK-4583,PAYLOAD,2024-01-04 06:09:22,15.0884618,0.0001517,53.2191,24.8316,83.0264,277.0901,0.00010481,1.381e-05,0.0,0 STARLINK-4583,1 53568U 22101AT  24004.25650944  .00001381  00000-0  10481-3 0  9998,2 53568  53.2191  24.8316 0001517  83.0264 277.0901 15.08846180 77057,6917.861,95.437,540.776,538.677,0.0
53568.0,STARLINK-4583,PAYLOAD,2024-01-05 04:24:46,15.08841083,0.0001684,53.2202,20.6701,94.1373,265.9812,5.0837e-05,5.21e-06,0.0,0 STARLINK-4583,1 53568U 22101AT  24005.18387367  .00000521  00000-0  50837-4 0  9992,2 53568  53.2202  20.6701 0001684  94.1373 265.9812 15.08841083 76504,6917.877,95.437,540.907,538.577,0.0
53568.0,STARLINK-4583,PAYLOAD,2024-01-05 07:35:32,15.08842159,0.0001721,53.2207,20.076,92.8029,267.3161,3.5838e-05,2.82e-06,0.0,0 STARLINK-4583,1 53568U 22101AT  24005.31635352  .00000282  00000-0  35838-4 0  9995,2 53568  53.2207  20.0760 0001721  92.8029 267.3161 15.08842159 77210,6917.874,95.437,540.929,538.548,0.0
53568.0,STARLINK-4583,PAYLOAD,2024-01-06 07:26:19,15.08848196,0.0001501,53.2185,15.6109,96.2982,263.8181,3.7639e-05,3.11e-06,0.0,0 STARLINK-4583,1 53568U 22101AT  24006.30994819  .00000311  00000-0  37639-4 0  9995,2 53568  53.2185  15.6109 0001501  96.2982 263.8181 15.08848196 76673,6917.855,95.437,540.759,538.682,0.0
53568.0,STARLINK-4583,PAYLOAD,2024-01-07 04:06:21,15.08835608,0.0001466,53.2181,11.7437,93.9737,266.1422,4.1822e-06,-2.21e-06,0.0,0 STARLINK-4583,1 53568U 22101AT  24007.17107748 -.00000221  00000-0  41822-5 0  9999,2 53568  53.2181  11.7437 0001466  93.9737 266.1422 15.08835608 76805,6917.894,95.438,540.773,538.745,0.0
53568.0,STARLINK-4583,PAYLOAD,2024-01-07 05:41:44,15.08835046,0.0001468,53.2181,11.449,90.2432,269.8728,2.5087e-05,1.11e-06,0.0,0 STARLINK-4583,1 53568U 22101AT  24007.23731835  .00000111  00000-0  25087-4 0  9997,2 53568  53.2181  11.4490 0001468  90.2432 269.8728 15.08835046 77508,6917.896,95.438,540.776,538.745,0.0
53568.0,STARLINK-4583,PAYLOAD,2024-01-08 08:43:18,15.08823991,0.0001417,53.2185,6.3951,84.2158,275.8996,-8.1154e-05,-1.579e-05,0.0,0 STARLINK-4583,1 53568U 22101AT  24008.36341260 -.00001579  00000-0 -81154-4 0  9999,2 53568  53.2185   6.3951 0001417  84.2158 275.8996 15.08823991 76980,6917.929,95.439,540.775,538.814,0.0
53568.0,STARLINK-4583,PAYLOAD,2024-01-09 03:47:56,15.08832006,0.0001321,53.2184,2.8269,75.6177,284.4961,6.3357e-05,7.2e-06,0.0,0 STARLINK-4583,1 53568U 22101AT  24009.15828800  .00000720  00000-0  63357-4 0  9997,2 53568  53.2184   2.8269 0001321  75.6177 284.4961 15.08832006 77101,6917.905,95.438,540.684,538.856,0.0
53568.0,STARLINK-4583,PAYLOAD,2024-01-09 08:34:04,15.08846079,0.0001397,53.2182,1.9329,91.0512,269.0641,0.00018083,2.592e-05,0.0,0 STARLINK-4583,1 53568U 22101AT  24009.35699667  .00002592  00000-0  18083-3 0  9990,2 53568  53.2182   1.9329 0001397  91.0512 269.0641 15.08846079 77136,6917.862,95.437,540.693,538.76,0.0
53568.0,STARLINK-4583,PAYLOAD,2024-01-09 22:52:33,15.08834858,0.0001515,53.2189,359.2594,81.0506,279.0657,0.00021866,3.193e-05,0.0,0 STARLINK-4583,1 53568U 22101AT  24009.95316306  .00003193  00000-0  21866-3 0  9993,2 53568  53.2189 359.2594 0001515  81.0506 279.0657 15.08834858 77916,6917.896,95.438,540.809,538.713,0.0
53568.0,STARLINK-4583,PAYLOAD,2024-01-10 03:38:42,15.08839363,0.0001358,53.2188,358.3652,91.0074,269.1074,0.00024268,3.576e-05,0.0,0 STARLINK-4583,1 53568U 22101AT  24010.15187917  .00003576  00000-0  24268-3 0  9995,2 53568  53.2188 358.3652 0001358  91.0074 269.1074 15.08839363 77252,6917.882,95.438,540.687,538.808,0.0
53568.0,STARLINK-4583,PAYLOAD,2024-01-10 08:24:51,15.08846423,0.0001356,53.2179,357.4716,96.7821,263.3325,0.00030119,4.51e-05,0.0,0 STARLINK-4583,1 53568U 22101AT  24010.35059533  .00004510  00000-0  30119-3 0  9990,2 53568  53.2179 357.4716 0001356  96.7821 263.3325 15.08846423 77972,6917.861,95.437,540.664,538.788,0.0
53568.0,STARLINK-4583,PAYLOAD,2024-01-11 05:04:52,15.08851335,0.0001805,53.2194,353.6023,75.9613,284.158,4.3476e-05,4.04e-06,0.0,0 STARLINK-4583,1 53568U 22101AT  24011.21171550  .00000404  00000-0  43476-4 0  9999,2 53568  53.2194 353.6023 0001805  75.9613 284.1580 15.08851335 77416,6917.846,95.437,540.959,538.462,0.0
53568.0,STARLINK-4583,PAYLOAD,2024-01-11 22:34:07,15.08845605,0.000176,53.218,350.3373,71.7882,288.3302,-6.1095e-06,-3.85e-06,0.0,0 STARLINK-4583,1 53568U 22101AT  24011.94036113 -.00000385  00000-0 -61095-5 0  9992,2 53568  53.2180 350.3373 0001760  71.7882 288.3302 15.08845605 78215,6917.863,95.437,540.946,538.511,0.0
53568.0,STARLINK-4583,PAYLOAD,2024-01-12 03:20:16,15.08843312,0.0001577,53.2192,349.4449,102.9349,257.1819,-2.5948e-05,-7.01e-06,0.0,0 STARLINK-4583,1 53568U 22101AT  24012.13907978 -.00000701  00000-0 -25948-4 0  9998,2 53568  53.2192 349.4449 0001577 102.9349 257.1819 15.08843312 77558,6917.87,95.437,540.826,538.644,0.0
53568.0,STARLINK-4583,PAYLOAD,2024-01-12 08:06:25,15.08845811,0.0001371,53.218,348.5513,90.4675,269.6474,-1.9864e-06,-3.2e-06,0.0,0 STARLINK-4583,1 53568U 22101AT  24012.33779746 -.00000320  00000-0 -19864-5 0  9998,2 53568  53.2180 348.5513 0001371  90.4675 269.6474 15.08845811 78273,6917.863,95.437,540.676,538.779,0.0
53568.0,STARLINK-4583,PAYLOAD,2024-01-13 03:11:03,15.08851068,0.0001413,53.2188,344.9835,83.5822,276.5331,-1.1027e-05,-4.64e-06,0.0,0 STARLINK-4583,1 53568U 22101AT  24013.13267420 -.00000464  00000-0 -11027-4 0  9999,2 53568  53.2188 344.9835 0001413  83.5822 276.5331 15.08851068 78395,6917.847,95.437,540.689,538.734,0.0
53568.0,STARLINK-4583,PAYLOAD,2024-01-14 04:37:13,15.08837803,0.0001383,53.2189,340.2265,93.9797,266.1353,6.0111e-05,6.69e-06,0.0,0 STARLINK-4583,1 53568U 22101AT  24014.19252014  .00000669  00000-0  60111-4 0  9992,2 53568  53.2189 340.2265 0001383  93.9797 266.1353 15.08837803 77865,6917.887,95.438,540.709,538.795,0.0
53568.0,STARLINK-4583,PAYLOAD,2024-01-14 07:47:59,15.08842058,0.0001337,53.2183,339.6296,98.228,261.8864,7.5954e-05,9.21e-06,0.0,0 STARLINK-4583,1 53568U 22101AT  24014.32499685  .00000921  00000-0  75954-4 0  9996,2 53568  53.2183 339.6296 0001337  98.2280 261.8864 15.08842058 78575,6917.874,95.437,540.664,538.814,0.0
53568.0,STARLINK-4583,PAYLOAD,2024-01-15 06:03:22,15.0885568,0.0001498,53.2183,335.4669,109.0716,251.0438,0.0001887,2.718e-05,0.0,0 STARLINK-4583,1 53568U 22101AT  24015.25234636  .00002718  00000-0  18870-3 0  9991,2 53568  53.2183 335.4669 0001498 109.0716 251.0438 15.08855680 78029,6917.832,95.437,540.734,538.661,0.0
53568.0,STARLINK-4583,PAYLOAD,2024-01-16 07:29:35,15.08830978,0.000158,53.2189,330.7084,92.9305,267.1868,8.8697e-06,-1.47e-06,0.0,0 STARLINK-4583,1 53568U 22101AT  24016.31221219 -.00000147  00000-0  88697-5 0  9993,2 53568  53.2189 330.7084 0001580  92.9305 267.1868 15.08830978 78185,6917.908,95.438,540.866,538.68,0.0
53568.0,STARLINK-4583,PAYLOAD,2024-01-17 04:09:34,15.08860371,0.0001399,53.2181,326.8445,95.1146,265.0006,8.1096e-05,1.004e-05,0.0,0 STARLINK-4583,1 53568U 22101AT  24017.17331264  .00001004  00000-0  81096-4 0  9997,2 53568  53.2181 326.8445 0001399  95.1146 265.0006 15.08860371 78316,6917.818,95.436,540.651,538.715,0.0
53568.0,STARLINK-4583,PAYLOAD,2024-01-18 02:24:59,15.08840995,0.0001311,53.218,322.683,90.6059,269.5083,0.00012598,1.718e-05,0.0,0 STARLINK-4583,1 53568U 22101AT  24018.10068711  .00001718  00000-0  12598-3 0  9997,2 53568  53.2180 322.6830 0001311  90.6059 269.5083 15.08840995 78453,6917.877,95.437,540.649,538.835,0.0
53568.0,STARLINK-4583,PAYLOAD,2024-01-18 21:29:37,15.0883637,0.0001349,53.2166,319.1172,102.2326,257.8817,2.5012e-05,1.1e-06,0.0,0 STARLINK-4583,1 53568U 22101AT  24018.89557403  .00000110  00000-0  25012-4 0  9995,2 53568  53.2166 319.1172 0001349 102.2326 257.8817 15.08836370 79262,6917.891,95.438,540.69,538.823,0.0
53568.0,STARLINK-4583,PAYLOAD,2024-01-19 02:15:46,15.08850336,0.0001585,53.2169,318.2241,86.3087,273.8087,6.0258e-07,-2.78e-06,0.0,0 STARLINK-4583,1 53568U 22101AT  24019.09428675 -.00000278  00000-0  60258-6 0  9995,2 53568  53.2169 318.2241 0001585  86.3087 273.8087 15.08850336 79298,6917.849,95.437,540.81,538.617,0.0
53568.0,STARLINK-4583,PAYLOAD,2024-01-19 19:45:01,15.08814847,0.0001326,53.2168,314.9589,76.8571,283.2569,0.00042478,6.474e-05,0.0,0 STARLINK-4583,1 53568U 22101AT  24019.82293407  .00006474  00000-0  42478-3 0  9993,2 53568  53.2168 314.9589 0001326  76.8571 283.2569 15.08814847 78713,6917.957,95.439,540.74,538.905,0.0
53568.0,STARLINK-4583,PAYLOAD,2024-01-20 02:06:33,15.08845469,0.0001398,53.2169,313.7631,92.0015,268.1137,7.2143e-05,8.61e-06,0.0,0 STARLINK-4583,1 53568U 22101AT  24020.08788746  .00000861  00000-0  72143-4 0  9995,2 53568  53.2169 313.7631 0001398  92.0015 268.1137 15.08845469 78752,6917.864,95.437,540.696,538.762,0.0
53568.0,STARLINK-4583,PAYLOAD,2024-01-20 19:35:48,15.08839927,0.000164,53.2174,310.4911,71.5086,288.6085,3.646e-05,2.92e-06,0.0,0 STARLINK-4583,1 53568U 22101AT  24020.81653555  .00000292  00000-0  36460-4 0  9995,2 53568  53.2174 310.4911 0001640  71.5086 288.6085 15.08839927 78866,6917.881,95.438,540.88,538.611,0.0
53568.0,STARLINK-4583,PAYLOAD,2024-01-20 22:46:34,15.08839119,0.0001526,53.2176,309.8972,84.7674,275.3492,2.4591e-05,1.03e-06,0.0,0 STARLINK-4583,1 53568U 22101AT  24020.94901538  .00000103  00000-0  24591-4 0  9999,2 53568  53.2176 309.8972 0001526  84.7674 275.3492 15.08839119 79576,6917.883,95.438,540.804,538.692,0.0
